IRIDIUM 155             
1 43573U 18061E   21085.03511678  .00000103  00000-0  29641-4 0  9995
2 43573  86.3959 134.6109 0002775  98.5401 261.6109 14.34219496139715
IRIDIUM 154             
1 43574U 18061F   21085.85331797  .00000103  00000-0  29677-4 0  9997
2 43574  86.3962 134.3116 0002003  96.3425 263.7999 14.34218574139885
IRIDIUM 163             
1 43575U 18061G   21085.83428925  .00000104  00000-0  30036-4 0  9998
2 43575  86.3960 134.2930 0002217  80.2406 279.9040 14.34219056139854
IRIDIUM 156             
1 43576U 18061H   21085.87869365  .00000106  00000-0  30722-4 0  9994
2 43576  86.3960 134.2794 0002536  88.2651 271.8836 14.34217818139855
IRIDIUM 164             
1 43577U 18061J   21085.85967117  .00000108  00000-0  31575-4 0  9996
2 43577  86.3961 134.2987 0002044  92.0759 268.0671 14.34218039139892
IRIDIUM 159             
1 43578U 18061K   21085.82795034  .00000102  00000-0  29233-4 0  9993
2 43578  86.3959 134.2889 0002104  94.6839 265.4597 14.34217873139854
IRIDIUM 180             
1 43922U 19002A   21085.89721442  .00000090  00000-0  24976-4 0  9996
2 43922  86.3937  71.0711 0001253  73.6458 286.4875 14.34218311115475
IRIDIUM 176             
1 43923U 19002B   21085.89768998  .00000139  00000-0  18072-4 0  9998
2 43923  86.6073  71.1025 0002255  91.1586 268.9889 14.72252390118480
IRIDIUM 168             
1 43924U 19002C   21085.89088421  .00000081  00000-0  21954-4 0  9994
2 43924  86.3941  71.0971 0001918  89.2462 270.8953 14.34217247115455
IRIDIUM 173             
1 43925U 19002D   21085.87819487  .00000082  00000-0  22337-4 0  9994
2 43925  86.3937  71.0689 0001998  86.9616 273.1808 14.34217970115436
IRIDIUM 169             
1 43926U 19002E   21085.78105057  .00000081  00000-0  20010-4 0  9991
2 43926  86.4175 102.7314 0006648 128.2074 231.9723 14.38609821115852
IRIDIUM 172             
1 43927U 19002F   21085.87183895  .00000086  00000-0  23758-4 0  9995
2 43927  86.3938  71.0736 0001899  86.5398 273.6014 14.34217415115444
IRIDIUM 175             
1 43928U 19002G   21085.95947144  .00000133  00000-0  17113-4 0  9991
2 43928  86.6057  70.9127 0002563  74.2507 285.8993 14.72252892118485
IRIDIUM 171             
1 43929U 19002H   21085.92258186  .00000083  00000-0  22404-4 0  9993
2 43929  86.3947  71.1468 0001934  89.8761 270.2656 14.34218313115442
IRIDIUM 170             
1 43930U 19002J   21085.90384340  .00000130  00000-0  16632-4 0  9994
2 43930  86.6073  71.1064 0002272  84.4220 275.7256 14.72252531118492
IRIDIUM 167             
1 43931U 19002K   21085.91623096  .00000082  00000-0  22049-4 0  9995
2 43931  86.3939  71.0605 0001443  82.9970 277.1390 14.34215539115447
